0 PICOSAT 1&2 (TETHERED)
1 26080U 00004H   13282.35372709  .00000506  00000-0  17309-3 0  2113
2 26080 100.2059 055.4603 0032411 060.7349 004.9158 14.41474123718305
0 PICOSAT 1&2 (TETHERED)
1 26080U 00004H   13284.36649755  .00000497  00000-0  17055-3 0  2122
2 26080 100.2063 057.8612 0032356 055.0743 009.7386 14.41476074718593
0 PICOSAT 1&2 (TETHERED)
1 26080U 00004H   13285.90488559  .00000468  00000-0  16143-3 0  2132
2 26080 100.2067 059.6962 0032326 050.7743 072.8480 14.41477753718810
0 PICOSAT 1&2 (TETHERED)
1 26080U 00004H   13286.94605075  .00000556  00000-0  18841-3 0  2147
2 26080 100.2069 060.9381 0032280 047.8171 075.7868 14.41478842718961
0 PICOSAT 1&2 (TETHERED)
1 26080U 00004H   13288.31632946  .00000771  00000-0  25445-3 0  2155
2 26080 100.2072 062.5727 0032243 043.9232 346.6098 14.41481372719150
0 PICOSAT 1&2 (TETHERED)
1 26080U 00004H   13289.35696373  .00000566  00000-0  19157-3 0  2160
2 26080 100.2074 063.8141 0032211 040.9718 346.8019 14.41483577719308
0 PICOSAT 1&2 (TETHERED)
1 26080U 00004H   13290.61325470  .00000671  00000-0  22373-3 0  2170
2 26080 100.2076 065.3129 0032163 037.4078 026.1195 14.41485267719490
0 PICOSAT 1&2 (TETHERED)
1 26080U 00004H   13291.87559340  .00000690  00000-0  22946-3 0  2182
2 26080 100.2077 066.8188 0032124 033.8479 096.8086 14.41486550719673
0 PICOSAT 1&2 (TETHERED)
1 26080U 00004H   13292.91524440  .00000742  00000-0  24541-3 0  2193
2 26080 100.2077 068.0593 0032094 030.9086 091.9101 14.41487995719820
0 PICOSAT 1&2 (TETHERED)
1 26080U 00004H   13293.95648266  .00000731  00000-0  24204-3 0  2207
2 26080 100.2077 069.3016 0032063 027.9541 095.2646 14.41490122719975
0 PICOSAT 1&2 (TETHERED)
1 26080U 00004H   13295.33336061  .00000775  00000-0  25552-3 0  2214
2 26080 100.2076 070.9444 0032017 024.0651 040.3641 14.41492393720178
